{
"type": "FeatureCollection",
"name": "newcastle_gp_accessibility",
"crs": { "type": "name", "properties": { "name": "urn:ogc:def:crs:OGC:1.3:CRS84" } },
"features": [
{ "type": "Feature", "properties": { "FID": 3016, "WD23CD": "E05011436", "WD23NM": "Arthur's Hill", "WD23NMW": " ", "BNG_E": 423485, "BNG_N": 564822, "LONG": -1.63462, "LAT": 54.97746, "GlobalID": "e2372c54-47c7-44ec-a2d6-3d3eab47327d", "Electoral wards and divisions Code": "E05011436", "Electoral wards and divisions": "Arthur's Hill", "total_population": 13276, "gp_count": 3.0, "gp_per_10k": 2.26 }, "geometry": { "type": "Polygon", "coordinates": [ [ [ -1.62515531274916, 54.983177998025901 ], [ -1.6253776543309, 54.982789595981401 ], [ -1.6235617666259, 54.9819653064351 ], [ -1.62400716546125, 54.980764386829897 ], [ -1.62592933624187, 54.979035003204501 ], [ -1.62654679220932, 54.9757650102122 ], [ -1.62330983386926, 54.974923780332702 ], [ -1.6212025085158, 54.973557662481198 ], [ -1.62229260218051, 54.972417965823702 ], [ -1.62267513803412, 54.971266188079497 ], [ -1.62557641975236, 54.971544732770703 ], [ -1.62671443692689, 54.971969646855797 ], [ -1.62912657146924, 54.971956347120603 ], [ -1.62947075476684, 54.971726512632202 ], [ -1.64386563324713, 54.974045635049798 ], [ -1.64260742315556, 54.9799954090482 ], [ -1.64400107935616, 54.980359829827698 ], [ -1.64117011108799, 54.982643914389001 ], [ -1.63921268653243, 54.983480181556203 ], [ -1.63387527394823, 54.979957793567898 ], [ -1.63180902469688, 54.981241994197703 ], [ -1.62987544318694, 54.981155279130398 ], [ -1.62855351285561, 54.983555039438997 ], [ -1.62739495804895, 54.9829565954374 ], [ -1.62674403333999, 54.983551302885303 ], [ -1.62515531274916, 54.983177998025901 ] ] ] } },
{ "type": "Feature", "properties": { "FID": 3017, "WD23CD": "E05011437", "WD23NM": "Benwell & Scotswood", "WD23NMW": " ", "BNG_E": 420679, "BNG_N": 564521, "LONG": -1.67848, "LAT": 54.97488, "GlobalID": "a64a3362-e034-47e4-8b97-418d336dfde9", "Electoral wards and divisions Code": "E05011437", "Electoral wards and divisions": "Benwell & Scotswood", "total_population": 13000, "gp_count": 0.0, "gp_per_10k": 0.0 }, "geometry": { "type": "Polygon", "coordinates": [ [ [ -1.65867588271538, 54.976424471951603 ], [ -1.66078808352157, 54.970434712710997 ], [ -1.6628864425916, 54.9692327697975 ], [ -1.66364962610572, 54.967052997264702 ], [ -1.66408561422323, 54.9668278120498 ], [ -1.66482334123523, 54.966961907424398 ], [ -1.66533405571515, 54.966591297894098 ], [ -1.66377857423164, 54.9659903129361 ], [ -1.66381277222249, 54.965453003718402 ], [ -1.66773596583435, 54.965869124502099 ], [ -1.66781236283396, 54.964828866172901 ], [ -1.68395913634975, 54.965929494747698 ], [ -1.68915164404815, 54.9674399292972 ], [ -1.69134024622564, 54.968076465948599 ], [ -1.69285240608269, 54.968890816358297 ], [ -1.69349153356194, 54.9696877631795 ], [ -1.6977862651594, 54.971077687468402 ], [ -1.69779170591657, 54.971079393139199 ], [ -1.69756805540511, 54.973744539565502 ], [ -1.69814983072495, 54.977473431861902 ], [ -1.69795455223248, 54.979157935075698 ], [ -1.69364852110281, 54.984956738947503 ], [ -1.66485234491292, 54.977494903282 ], [ -1.65867588271538, 54.976424471951603 ] ] ] } },
{ "type": "Feature", "properties": { "FID": 3018, "WD23CD": "E05011438", "WD23NM": "Blakelaw", "WD23NMW": " ", "BNG_E": 421779, "BNG_N": 566997, "LONG": -1.66111, "LAT": 54.99708, "GlobalID": "661df9c8-f10d-4b1b-93aa-5bb3c07e086d", "Electoral wards and divisions Code": "E05011438", "Electoral wards and divisions": "Blakelaw", "total_population": 11468, "gp_count": 1.0, "gp_per_10k": 0.87 }, "geometry": { "type": "Polygon", "coordinates": [ [ [ -1.64260809581511, 54.996612025204598 ], [ -1.63709452433841, 54.995448137603901 ], [ -1.63414532781059, 54.995762815478599 ], [ -1.63395527711229, 54.995516001046198 ], [ -1.63301507797375, 54.995606690960201 ], [ -1.63143813581202, 54.995070809642101 ], [ -1.62878321479309, 54.995335039812304 ], [ -1.62864626602463, 54.995105447349601 ], [ -1.63027757651912, 54.994469693130704 ], [ -1.63857995606725, 54.988726346045098 ], [ -1.64195043135982, 54.989493813489503 ], [ -1.64540438716737, 54.989835510638102 ], [ -1.65441149595577, 54.989406739974399 ], [ -1.65677319922745, 54.989936365108903 ], [ -1.65828310708153, 54.989725901203997 ], [ -1.6630440104649, 54.989283514958899 ], [ -1.67327619970681, 54.990210072329504 ], [ -1.67464925317824, 54.9908796303408 ], [ -1.67870294490994, 54.994283640468602 ], [ -1.68080851491337, 54.995256995725001 ], [ -1.67909678508663, 54.996658881794502 ], [ -1.66880974213537, 55.0054112457522 ], [ -1.66805957815838, 55.004857022373898 ], [ -1.66711644037349, 55.001687726139998 ], [ -1.65941860044641, 55.002444601564697 ], [ -1.65851890348164, 55.000333989998097 ], [ -1.65702956127953, 54.998433707733803 ], [ -1.65302510483755, 54.998931829564903 ], [ -1.65285045060449, 54.9981513671135 ], [ -1.65004040888875, 54.998447961612598 ], [ -1.64260809581511, 54.996612025204598 ] ] ] } },
{ "type": "Feature", "properties": { "FID": 3019, "WD23CD": "E05011439", "WD23NM": "Byker", "WD23NMW": " ", "BNG_E": 427231, "BNG_N": 564398, "LONG": -1.57614, "LAT": 54.97346, "GlobalID": "0c6baf71-59f2-44d3-9bec-2fd731304b86", "Electoral wards and divisions Code": "E05011439", "Electoral wards and divisions": "Byker", "total_population": 12034, "gp_count": 1.0, "gp_per_10k": 0.83 }, "geometry": { "type": "MultiPolygon", "coordinates": [ [ [ [ -1.5910376949772, 54.975595193754103 ], [ -1.59103439800138, 54.975569097337498 ], [ -1.59139718456031, 54.975737051931198 ], [ -1.5910376949772, 54.975595193754103 ] ] ], [ [ [ -1.57385660310007, 54.978464151838402 ], [ -1.57403233548842, 54.977801590244603 ], [ -1.5721561375071, 54.978513898754997 ], [ -1.56248292897957, 54.980852810606599 ], [ -1.559299977326, 54.974126870158997 ], [ -1.56685638549056, 54.973707353548299 ], [ -1.56677673476942, 54.973412317414002 ], [ -1.56588722259231, 54.973470244854497 ], [ -1.56522598795583, 54.970326307839102 ], [ -1.56590393491854, 54.970030375068298 ], [ -1.5653112827127, 54.968210332187503 ], [ -1.56560548340949, 54.966282951755097 ], [ -1.56498056711949, 54.966145970555502 ], [ -1.56534349891777, 54.964536197098802 ], [ -1.56547386180763, 54.964576947611398 ], [ -1.5672203141312, 54.9651294505964 ], [ -1.57021289082538, 54.965427604009498 ], [ -1.57718144370047, 54.965185978339797 ], [ -1.58065986428684, 54.966077750098798 ], [ -1.58804928018505, 54.970815285712497 ], [ -1.58850348145173, 54.972086561358701 ], [ -1.58952210355138, 54.972383849803499 ], [ -1.5901729939328, 54.973356537555603 ], [ -1.59148161696978, 54.974022302789201 ], [ -1.59166613841066, 54.974627696569698 ], [ -1.59083281925318, 54.975002390864198 ], [ -1.59086753802479, 54.975582045393097 ], [ -1.59180677344855, 54.975926671783398 ], [ -1.59295065902246, 54.976456217649996 ], [ -1.58054331348873, 54.980309755214698 ], [ -1.57515449128561, 54.982082901266502 ], [ -1.57385660310007, 54.978464151838402 ] ] ] ] } },
{ "type": "Feature", "properties": { "FID": 3020, "WD23CD": "E05011440", "WD23NM": "Callerton & Throckley", "WD23NMW": " ", "BNG_E": 418125, "BNG_N": 568604, "LONG": -1.71813, "LAT": 55.01167, "GlobalID": "799c6aec-9734-495b-bc77-9f4fcfe83ba9", "Electoral wards and divisions Code": "E05011440", "Electoral wards and divisions": "Callerton & Throckley", "total_population": 10509, "gp_count": 0.0, "gp_per_10k": 0.0 }, "geometry": { "type": "Polygon", "coordinates": [ [ [ -1.69502580327548, 55.042908660524702 ], [ -1.69325504415153, 55.042294225185302 ], [ -1.69173697086209, 55.041081769447302 ], [ -1.69031199585566, 55.040802284430697 ], [ -1.68906098311339, 55.0400901322664 ], [ -1.68725861123992, 55.039851872381703 ], [ -1.68575546116759, 55.039760876695397 ], [ -1.68517849212165, 55.040904245220297 ], [ -1.68026790640733, 55.041300333302701 ], [ -1.67913348723201, 55.040694388775698 ], [ -1.67885407979952, 55.038666353609699 ], [ -1.67270924074166, 55.0401983508415 ], [ -1.67151075885278, 55.040747798204499 ], [ -1.66775363679521, 55.041102457124403 ], [ -1.66506560597507, 55.035278482563399 ], [ -1.66565702842381, 55.032093655640899 ], [ -1.66468566721601, 55.029839900550598 ], [ -1.66419576763579, 55.025960187959797 ], [ -1.6663100276684, 55.022846910587297 ], [ -1.66638697015927, 55.020384913012798 ], [ -1.66921730706904, 55.018564925513097 ], [ -1.67365284969072, 55.016642082439503 ], [ -1.67333328296431, 55.015557547173401 ], [ -1.67486930559804, 55.013787766745402 ], [ -1.67864625591614, 55.012384310219197 ], [ -1.68075058119502, 55.0098854159287 ], [ -1.68860072383141, 55.009778957331399 ], [ -1.68917340795155, 55.009925142518597 ], [ -1.68907705462794, 55.010863940080903 ], [ -1.69352880672255, 55.010836580635697 ], [ -1.69844513609319, 55.011434738577996 ], [ -1.70028684130808, 55.011257723067096 ], [ -1.70064539681408, 55.010562205781 ], [ -1.69993605343782, 55.0090274335993 ], [ -1.70012211807627, 55.008399767199002 ], [ -1.69955835182059, 55.0078852440449 ], [ -1.69647528087723, 55.007032082485402 ], [ -1.69819620009223, 55.002925156516 ], [ -1.69846248393636, 55.0016021881274 ], [ -1.70277670968385, 55.0029166500657 ], [ -1.70285943940831, 55.002936612980498 ], [ -1.70326680833023, 55.0030338207455 ], [ -1.71181478378578, 55.005681816173997 ], [ -1.7219870683452, 55.009647651233003 ], [ -1.72248346195045, 55.009545382560802 ], [ -1.72210195151228, 55.005239368801 ], [ -1.72251074497917, 55.003999323377201 ], [ -1.72535670594201, 55.004358009880796 ], [ -1.72719789592715, 55.003961390629897 ], [ -1.7281228485979, 55.004041612881203 ], [ -1.72829249156838, 55.004612621534598 ], [ -1.72971887078262, 55.004522273420598 ], [ -1.72991876680191, 55.0038541669173 ], [ -1.74208483511905, 55.001884743738401 ], [ -1.74042485295683, 54.999442389021198 ], [ -1.73542938373283, 54.997700984454902 ], [ -1.73150079396316, 54.995897854557299 ], [ -1.73221781145857, 54.995029561385202 ], [ -1.73226250471553, 54.992762497505403 ], [ -1.72639700209696, 54.991591136143697 ], [ -1.72573594234128, 54.988139874237902 ], [ -1.72623094924856, 54.987725857463701 ], [ -1.73718721471432, 54.987010377194999 ], [ -1.73687223390426, 54.985698640451702 ], [ -1.73582497262797, 54.984799546163103 ], [ -1.73370061403913, 54.981116946760402 ], [ -1.73397042863646, 54.980717585873002 ], [ -1.73227066808113, 54.9799842076456 ], [ -1.73870271086004, 54.980532893549501 ], [ -1.73922985446133, 54.9797687864259 ], [ -1.73923543624769, 54.979770590229798 ], [ -1.74617589508517, 54.9820134814996 ], [ -1.75048776234628, 54.982873318821198 ], [ -1.75068765069143, 54.983154104852801 ], [ -1.7510421651343, 54.982929252918403 ], [ -1.75215729504371, 54.982998095076297 ], [ -1.75245616701794, 54.983442580562397 ], [ -1.75296392680163, 54.983458882522697 ], [ -1.75332778225096, 54.982989689799403 ], [ -1.75709602509351, 54.982553290031298 ], [ -1.76343314204528, 54.981305902384896 ], [ -1.7666542360895, 54.981162986176301 ], [ -1.7696808262418, 54.981373055010899 ], [ -1.77262082818444, 54.9876127380873 ], [ -1.77426518831304, 54.988392236510499 ], [ -1.77568505202114, 54.989630444800703 ], [ -1.77502077453661, 54.994975916664899 ], [ -1.7735762041226, 54.996158431879998 ], [ -1.77417409578316, 55.002703186056898 ], [ -1.77366110709148, 55.0027471518341 ], [ -1.77384237281685, 55.004139475004798 ], [ -1.75956316905044, 55.003019409902997 ], [ -1.75774403106022, 55.002939449433903 ], [ -1.75656332387461, 55.0032632881598 ], [ -1.7569111853159, 55.010374656197001 ], [ -1.75634424903038, 55.015943978914898 ], [ -1.7510575477708, 55.015614300150702 ], [ -1.75024527652204, 55.024020779035098 ], [ -1.74267773883102, 55.024078801368702 ], [ -1.74003268047735, 55.024580845112403 ], [ -1.73969857506349, 55.025211847611303 ], [ -1.74009078157833, 55.025508329094301 ], [ -1.73928761718242, 55.026833826922001 ], [ -1.73798196418262, 55.026982938080202 ], [ -1.73917907644606, 55.0283764986549 ], [ -1.7393213030421, 55.029595315155802 ], [ -1.73510244909862, 55.029558376678402 ], [ -1.73232914250112, 55.029997989389997 ], [ -1.73190176746316, 55.031689169176197 ], [ -1.72869421263977, 55.032226651275103 ], [ -1.72692887273015, 55.033165483126801 ], [ -1.72498668262611, 55.033148717918102 ], [ -1.72162230102684, 55.033640435710403 ], [ -1.72160700616442, 55.034071683502397 ], [ -1.71444804278569, 55.034023605016301 ], [ -1.71694382619204, 55.038625787488598 ], [ -1.71115906315471, 55.0394892960622 ], [ -1.71157828769659, 55.041238912367497 ], [ -1.70862000449561, 55.041349666377499 ], [ -1.70865400348571, 55.042260939353298 ], [ -1.70735176295706, 55.042080762889803 ], [ -1.70372111376327, 55.042302977292501 ], [ -1.70079334011933, 55.042906000514499 ], [ -1.70021051635285, 55.0436261241734 ], [ -1.69502580327548, 55.042908660524702 ] ] ] } },
{ "type": "Feature", "properties": { "FID": 3021, "WD23CD": "E05011441", "WD23NM": "Castle", "WD23NMW": " ", "BNG_E": 421116, "BNG_N": 573854, "LONG": -1.67097, "LAT": 55.05873, "GlobalID": "875b5962-f5da-4a22-99bf-b57b62410e82", "Electoral wards and divisions Code": "E05011441", "Electoral wards and divisions": "Castle (Newcastle upon Tyne)", "total_population": 14201, "gp_count": 0.0, "gp_per_10k": 0.0 }, "geometry": { "type": "Polygon", "coordinates": [ [ [ -1.63789356936638, 55.064768597718597 ], [ -1.63938985272176, 55.064314781971802 ], [ -1.63968918315975, 55.063584143489301 ], [ -1.63705949393791, 55.061777326749201 ], [ -1.63220923884433, 55.048228950415101 ], [ -1.63423069722787, 55.047960934161701 ], [ -1.63833484509846, 55.045812982878601 ], [ -1.63971347687119, 55.044081803357201 ], [ -1.63850785874478, 55.041551346530397 ], [ -1.62970799591479, 55.041465646991597 ], [ -1.62832020150458, 55.036538768009201 ], [ -1.62870148293557, 55.034731887002103 ], [ -1.62988131412633, 55.033025436227398 ], [ -1.63227245102753, 55.031259651543103 ], [ -1.64165350400688, 55.026816118509899 ], [ -1.64737425950494, 55.023417200689401 ], [ -1.65846022372694, 55.014005288232099 ], [ -1.6646286669709, 55.014459124645803 ], [ -1.67486930559804, 55.013787766745402 ], [ -1.67333328296431, 55.015557547173401 ], [ -1.67365284969072, 55.016642082439503 ], [ -1.66921730706904, 55.018564925513097 ], [ -1.66638697015927, 55.020384913012798 ], [ -1.6663100276684, 55.022846910587297 ], [ -1.66419576763579, 55.025960187959797 ], [ -1.66468566721601, 55.029839900550598 ], [ -1.66565702842381, 55.032093655640899 ], [ -1.66506560597507, 55.035278482563399 ], [ -1.66775363679521, 55.041102457124403 ], [ -1.67151075885278, 55.040747798204499 ], [ -1.67270924074166, 55.0401983508415 ], [ -1.67885407979952, 55.038666353609699 ], [ -1.67913348723201, 55.040694388775698 ], [ -1.68026790640733, 55.041300333302701 ], [ -1.68517849212165, 55.040904245220297 ], [ -1.68575546116759, 55.039760876695397 ], [ -1.68725861123992, 55.039851872381703 ], [ -1.68906098311339, 55.0400901322664 ], [ -1.69031199585566, 55.040802284430697 ], [ -1.69173697086209, 55.041081769447302 ], [ -1.69325504415153, 55.042294225185302 ], [ -1.69502580327548, 55.042908660524702 ], [ -1.69512655053061, 55.0433720127564 ], [ -1.69431558188918, 55.044332751157299 ], [ -1.6944614261959, 55.045621982956803 ], [ -1.69398191797237, 55.046108724979298 ], [ -1.69509548091259, 55.048645569065499 ], [ -1.69468093209833, 55.049455253839099 ], [ -1.6955668271446, 55.050646495115899 ], [ -1.69687348073995, 55.0512252080566 ], [ -1.69802824849519, 55.052395082227697 ], [ -1.71057385902209, 55.052788198131502 ], [ -1.71377414645177, 55.0654631329407 ], [ -1.70406785930316, 55.065847362461497 ], [ -1.70471580122538, 55.068608889505803 ], [ -1.70457986894502, 55.070928566093201 ], [ -1.70101519365151, 55.070865985278303 ], [ -1.70093881496841, 55.071218049553899 ], [ -1.69681902072138, 55.070844959742203 ], [ -1.69672334997214, 55.070532458991302 ], [ -1.69129602857648, 55.069699622399597 ], [ -1.69056406619528, 55.070417820629302 ], [ -1.69103996399272, 55.0727187579635 ], [ -1.68583397408038, 55.073488286276501 ], [ -1.67971702289366, 55.075042269467403 ], [ -1.66184723836483, 55.078412427859 ], [ -1.64768125804879, 55.079388700635 ], [ -1.64557361723772, 55.076830585274998 ], [ -1.64180633756286, 55.070751357698001 ], [ -1.63975652587359, 55.069165584363503 ], [ -1.63789356936638, 55.064768597718597 ] ] ] } },
{ "type": "Feature", "properties": { "FID": 3022, "WD23CD": "E05011442", "WD23NM": "Chapel", "WD23NMW": " ", "BNG_E": 417841, "BNG_N": 567195, "LONG": -1.72265, "LAT": 54.99902, "GlobalID": "fc89ffb2-f1ee-4596-999e-9b9b0967154a", "Electoral wards and divisions Code": "E05011442", "Electoral wards and divisions": "Chapel", "total_population": 9331, "gp_count": 0.0, "gp_per_10k": 0.0 }, "geometry": { "type": "Polygon", "coordinates": [ [ [ -1.70285943940831, 55.002936612980498 ], [ -1.70748506790379, 54.997367522342401 ], [ -1.71211972214139, 54.988373541057499 ], [ -1.71762795169392, 54.989551081203899 ], [ -1.72235708689171, 54.991129136534198 ], [ -1.72560259027611, 54.992575109611003 ], [ -1.73150079396316, 54.995897854557299 ], [ -1.73542938373283, 54.997700984454902 ], [ -1.74042485295683, 54.999442389021198 ], [ -1.74208483511905, 55.001884743738401 ], [ -1.72991876680191, 55.0038541669173 ], [ -1.72971887078262, 55.004522273420598 ], [ -1.72829249156838, 55.004612621534598 ], [ -1.7281228485979, 55.004041612881203 ], [ -1.72719789592715, 55.003961390629897 ], [ -1.72535670594201, 55.004358009880796 ], [ -1.72251074497917, 55.003999323377201 ], [ -1.72210195151228, 55.005239368801 ], [ -1.72248346195045, 55.009545382560802 ], [ -1.7219870683452, 55.009647651233003 ], [ -1.71181478378578, 55.005681816173997 ], [ -1.70326680833023, 55.0030338207455 ], [ -1.70285943940831, 55.002936612980498 ] ] ] } },
{ "type": "Feature", "properties": { "FID": 3023, "WD23CD": "E05011443", "WD23NM": "Dene & South Gosforth", "WD23NMW": " ", "BNG_E": 425414, "BNG_N": 567288, "LONG": -1.60427, "LAT": 54.99953, "GlobalID": "b4949e05-ca8a-448b-b700-f073e4efe19d", "Electoral wards and divisions Code": "E05011443", "Electoral wards and divisions": "Dene & South Gosforth", "total_population": 9653, "gp_count": 0.0, "gp_per_10k": 0.0 }, "geometry": { "type": "Polygon", "coordinates": [ [ [ -1.60026644234707, 55.009838412251298 ], [ -1.58796520626762, 55.008638316555903 ], [ -1.5839207986426, 55.008887003778803 ], [ -1.57921431988988, 55.009791898835402 ], [ -1.57713645401983, 55.005324793506098 ], [ -1.57794650866184, 55.005447172906997 ], [ -1.5782099413335, 55.004333731113299 ], [ -1.57855332584389, 55.004384329554597 ], [ -1.57885071251822, 55.003903734303996 ], [ -1.57981446161605, 55.004143332249299 ], [ -1.58050727025844, 55.003665892248101 ], [ -1.5791522005114, 55.003338615083301 ], [ -1.58075727366877, 55.001582780385 ], [ -1.58017105134339, 55.001435225214301 ], [ -1.58163233267839, 54.998155692297601 ], [ -1.58621836696864, 54.998791410427302 ], [ -1.58621000807866, 54.999607376445901 ], [ -1.58865568602033, 54.999379300340898 ], [ -1.58867082383304, 54.998968704219998 ], [ -1.58915381309863, 54.998976623505598 ], [ -1.58935787223739, 54.999810374837502 ], [ -1.59184039043353, 54.999341504772097 ], [ -1.59152739449728, 54.998289086442902 ], [ -1.59325478387038, 54.997821245560303 ], [ -1.59369541530144, 54.9979899046157 ], [ -1.59335816749806, 54.997332784957699 ], [ -1.59462351403733, 54.9971033363109 ], [ -1.59226036959943, 54.991801585559898 ], [ -1.59173326592845, 54.991844737452098 ], [ -1.59121627394373, 54.991192402783298 ], [ -1.58815090399924, 54.989708295919598 ], [ -1.58633969816458, 54.990299752790797 ], [ -1.5890491859764, 54.988969995086698 ], [ -1.58907115503931, 54.9889637806235 ], [ -1.58964922594327, 54.989279351084697 ], [ -1.59158587595172, 54.989093521065101 ], [ -1.59242490913812, 54.989434209236997 ], [ -1.5938766484154, 54.991152792795397 ], [ -1.59323972622701, 54.991866849043703 ], [ -1.59469277010218, 54.995030385526697 ], [ -1.59771537705937, 54.9975691570123 ], [ -1.60126895732316, 54.998467812091903 ], [ -1.60595648937636, 54.998841614443002 ], [ -1.60708578085356, 54.998763511819597 ], [ -1.60714817571623, 54.998457277020201 ], [ -1.60929573553679, 54.998490240448703 ], [ -1.60939076055917, 54.998686480257199 ], [ -1.61009048837001, 54.998098312298403 ], [ -1.61045126881735, 54.998295402041997 ], [ -1.6114993432677, 54.997881725640902 ], [ -1.61638293497059, 54.9953909271307 ], [ -1.61793592894768, 54.999435168065702 ], [ -1.61646781618753, 55.000283376553803 ], [ -1.61568129858268, 55.001768142014001 ], [ -1.6120488482696, 55.003159334011599 ], [ -1.61100255332815, 55.004651328329103 ], [ -1.61053607177552, 55.004555419195 ], [ -1.61034944675886, 55.005894736006901 ], [ -1.60806903884993, 55.006304352686698 ], [ -1.60656355568478, 55.008521788502598 ], [ -1.60303042971977, 55.010043373927303 ], [ -1.60026644234707, 55.009838412251298 ] ] ] } },
{ "type": "Feature", "properties": { "FID": 3024, "WD23CD": "E05011444", "WD23NM": "Denton & Westerhope", "WD23NMW": " ", "BNG_E": 419575, "BNG_N": 566604, "LONG": -1.69559, "LAT": 54.99364, "GlobalID": "c6e7cd02-d0ec-4be8-8495-16a01c8504dd", "Electoral wards and divisions Code": "E05011444", "Electoral wards and divisions": "Denton & Westerhope", "total_population": 12385, "gp_count": 1.0, "gp_per_10k": 0.81 }, "geometry": { "type": "Polygon", "coordinates": [ [ [ -1.67909678508663, 54.996658881794502 ], [ -1.68080851491337, 54.995256995725001 ], [ -1.69364852110281, 54.984956738947503 ], [ -1.69938976398818, 54.9862219715028 ], [ -1.71211972214139, 54.988373541057499 ], [ -1.70748506790379, 54.997367522342401 ], [ -1.70285943940831, 55.002936612980498 ], [ -1.70277670968385, 55.0029166500657 ], [ -1.69846248393636, 55.0016021881274 ], [ -1.69819620009223, 55.002925156516 ], [ -1.69519737661448, 55.001740586003201 ], [ -1.69544767648229, 55.001503058826799 ], [ -1.69423815437117, 55.001045375067001 ], [ -1.69401409341121, 55.001306232436598 ], [ -1.69130160035043, 55.000328902250203 ], [ -1.68823440878774, 54.999934708839803 ], [ -1.68774844269564, 54.999508449894002 ], [ -1.68365060320768, 54.998803167663901 ], [ -1.68372453020147, 54.998347799651498 ], [ -1.6816418325775, 54.997813949280697 ], [ -1.67909678508663, 54.996658881794502 ] ] ] } },
{ "type": "Feature", "properties": { "FID": 3025, "WD23CD": "E05011445", "WD23NM": "Elswick", "WD23NMW": " ", "BNG_E": 422726, "BNG_N": 563797, "LONG": -1.64656, "LAT": 54.96828, "GlobalID": "84cd0e02-2508-48e9-b61d-eda508e229aa", "Electoral wards and divisions Code": "E05011445", "Electoral wards and divisions": "Elswick", "total_population": 16123, "gp_count": 5.0, "gp_per_10k": 3.1 }, "geometry": { "type": "Polygon", "coordinates": [ [ [ -1.65722943427563, 54.9762092853355 ], [ -1.64386563324713, 54.974045635049798 ], [ -1.62947075476684, 54.971726512632202 ], [ -1.63213039175349, 54.970591481934498 ], [ -1.629371067159, 54.9684327011676 ], [ -1.63569766082516, 54.966629330818897 ], [ -1.63458772111045, 54.964840537055402 ], [ -1.63454334803248, 54.963348691677901 ], [ -1.62609911930785, 54.964991797242298 ], [ -1.62425652778922, 54.965623245398803 ], [ -1.62168373557613, 54.964169495973202 ], [ -1.62028758543113, 54.962494778211202 ], [ -1.62039261607205, 54.962443714657198 ], [ -1.62388167592643, 54.961087769922997 ], [ -1.62757912460163, 54.960315474659097 ], [ -1.63404275978897, 54.960145467216002 ], [ -1.63945377452031, 54.960350220338803 ], [ -1.6474272960973, 54.9614635748758 ], [ -1.65881549589419, 54.964060641751701 ], [ -1.66771323809265, 54.964822102968803 ], [ -1.66781236283396, 54.964828866172901 ], [ -1.66773596583435, 54.965869124502099 ], [ -1.66381277222249, 54.965453003718402 ], [ -1.66377857423164, 54.9659903129361 ], [ -1.66533405571515, 54.966591297894098 ], [ -1.66482334123523, 54.966961907424398 ], [ -1.66408561422323, 54.9668278120498 ], [ -1.66364962610572, 54.967052997264702 ], [ -1.6628864425916, 54.9692327697975 ], [ -1.66078808352157, 54.970434712710997 ], [ -1.65867588271538, 54.976424471951603 ], [ -1.65722943427563, 54.9762092853355 ] ] ] } },
{ "type": "Feature", "properties": { "FID": 3026, "WD23CD": "E05011446", "WD23NM": "Fawdon & West Gosforth", "WD23NMW": " ", "BNG_E": 422880, "BNG_N": 568762, "LONG": -1.64376, "LAT": 55.01289, "GlobalID": "9efe2f60-2b29-4edd-ac0f-778f92dcf917", "Electoral wards and divisions Code": "E05011446", "Electoral wards and divisions": "Fawdon & West Gosforth", "total_population": 9910, "gp_count": 0.0, "gp_per_10k": 0.0 }, "geometry": { "type": "Polygon", "coordinates": [ [ [ -1.6207748040513, 55.011842327614502 ], [ -1.61977830899358, 55.0074297430982 ], [ -1.62636202744153, 55.0061200860181 ], [ -1.63869348392814, 55.002272586569603 ], [ -1.64122899846935, 55.006665343007498 ], [ -1.64414605743931, 55.0063692639539 ], [ -1.64296636729761, 55.008923259562401 ], [ -1.64254930836854, 55.008866339297398 ], [ -1.64242464455215, 55.009168807847999 ], [ -1.64565307174965, 55.009224953593701 ], [ -1.64492677468809, 55.01071544853 ], [ -1.64845176110463, 55.0113681724958 ], [ -1.65177344461065, 55.0113220142904 ], [ -1.65178749734895, 55.010967026585099 ], [ -1.6545782467513, 55.011187076585998 ], [ -1.65964171458793, 55.0118950440148 ], [ -1.66036690844856, 55.012307795516598 ], [ -1.65846022372694, 55.014005288232099 ], [ -1.64737425950494, 55.023417200689401 ], [ -1.64530602442569, 55.0234803586415 ], [ -1.64122166200793, 55.022828567885597 ], [ -1.64028604747486, 55.0197210956389 ], [ -1.64053964663588, 55.017792541090699 ], [ -1.64147468859099, 55.017643476129301 ], [ -1.63867411611756, 55.016387027335803 ], [ -1.63527430758426, 55.0158619589279 ], [ -1.63531694534845, 55.014268866039899 ], [ -1.62494808256045, 55.012365596794702 ], [ -1.62218515810573, 55.012019191809401 ], [ -1.62085155493563, 55.012314290367001 ], [ -1.6207748040513, 55.011842327614502 ] ] ] } },
{ "type": "Feature", "properties": { "FID": 3027, "WD23CD": "E05011447", "WD23NM": "Gosforth", "WD23NMW": " ", "BNG_E": 424186, "BNG_N": 567717, "LONG": -1.62343, "LAT": 55.00344, "GlobalID": "6c0e0417-ec61-4221-b0bb-5c5547e73da0", "Electoral wards and divisions Code": "E05011447", "Electoral wards and divisions": "Gosforth (Newcastle upon Tyne)", "total_population": 10541, "gp_count": 4.0, "gp_per_10k": 3.79 }, "geometry": { "type": "Polygon", "coordinates": [ [ [ -1.60303042971977, 55.010043373927303 ], [ -1.60656355568478, 55.008521788502598 ], [ -1.60806903884993, 55.006304352686698 ], [ -1.61034944675886, 55.005894736006901 ], [ -1.61053607177552, 55.004555419195 ], [ -1.61100255332815, 55.004651328329103 ], [ -1.6120488482696, 55.003159334011599 ], [ -1.61568129858268, 55.001768142014001 ], [ -1.61646781618753, 55.000283376553803 ], [ -1.61793592894768, 54.999435168065702 ], [ -1.61638293497059, 54.9953909271307 ], [ -1.61930086757068, 54.995754136461798 ], [ -1.62864626602463, 54.995105447349601 ], [ -1.62878321479309, 54.995335039812304 ], [ -1.63143813581202, 54.995070809642101 ], [ -1.63301507797375, 54.995606690960201 ], [ -1.63395527711229, 54.995516001046198 ], [ -1.63414532781059, 54.995762815478599 ], [ -1.63709452433841, 54.995448137603901 ], [ -1.64260809581511, 54.996612025204598 ], [ -1.6395917643421, 55.001985885466603 ], [ -1.63869348392814, 55.002272586569603 ], [ -1.62636202744153, 55.0061200860181 ], [ -1.61977830899358, 55.0074297430982 ], [ -1.6207748040513, 55.011842327614502 ], [ -1.61389120908511, 55.0113722577535 ], [ -1.60303042971977, 55.010043373927303 ] ] ] } },
{ "type": "Feature", "properties": { "FID": 3028, "WD23CD": "E05011448", "WD23NM": "Heaton", "WD23NMW": " ", "BNG_E": 427164, "BNG_N": 566028, "LONG": -1.57703, "LAT": 54.98811, "GlobalID": "742943e8-3b33-4db8-9e72-ff777b7c1395", "Electoral wards and divisions Code": "E05011448", "Electoral wards and divisions": "Heaton (Newcastle upon Tyne)", "total_population": 10593, "gp_count": 1.0, "gp_per_10k": 0.94 }, "geometry": { "type": "Polygon", "coordinates": [ [ [ -1.56257082397793, 54.992240561276098 ], [ -1.56793491091287, 54.986235310272903 ], [ -1.57210085689702, 54.983448076918897 ], [ -1.57515449128561, 54.982082901266502 ], [ -1.58054331348873, 54.980309755214698 ], [ -1.58158752085534, 54.982086270310802 ], [ -1.58186522382127, 54.983938400513601 ], [ -1.58422893477219, 54.983685862764503 ], [ -1.58426982219059, 54.9818375190791 ], [ -1.58634652037314, 54.981681980504199 ], [ -1.58643088191678, 54.981986903749799 ], [ -1.58894799700496, 54.981227945761802 ], [ -1.5901477100084, 54.982343629643402 ], [ -1.59158638177616, 54.9817580529267 ], [ -1.59031349429127, 54.982473552597298 ], [ -1.58966657926736, 54.983557863133399 ], [ -1.58841419220262, 54.983629101357401 ], [ -1.58895526177729, 54.984510703678502 ], [ -1.58703557609556, 54.985820682829001 ], [ -1.58721724259742, 54.987010202294002 ], [ -1.5882223451534, 54.9872814093359 ], [ -1.58809929206888, 54.988168763030103 ], [ -1.5890491859764, 54.988969995086698 ], [ -1.58633969816458, 54.990299752790797 ], [ -1.57879707629623, 54.9927200101205 ], [ -1.56802228816858, 54.994302527047303 ], [ -1.56059017548544, 54.9958791252674 ], [ -1.56298107729353, 54.992317494744597 ], [ -1.56257082397793, 54.992240561276098 ] ] ] } },
{ "type": "Feature", "properties": { "FID": 3029, "WD23CD": "E05011449", "WD23NM": "Kenton", "WD23NMW": " ", "BNG_E": 422228, "BNG_N": 567821, "LONG": -1.65403, "LAT": 55.00447, "GlobalID": "e75e137b-2b4c-434d-97da-cdbcd5c80622", "Electoral wards and divisions Code": "E05011449", "Electoral wards and divisions": "Kenton (Newcastle upon Tyne)", "total_population": 11528, "gp_count": 2.0, "gp_per_10k": 1.73 }, "geometry": { "type": "Polygon", "coordinates": [ [ [ -1.63869348392814, 55.002272586569603 ], [ -1.6395917643421, 55.001985885466603 ], [ -1.64260809581511, 54.996612025204598 ], [ -1.65004040888875, 54.998447961612598 ], [ -1.65285045060449, 54.9981513671135 ], [ -1.65302510483755, 54.998931829564903 ], [ -1.65702956127953, 54.998433707733803 ], [ -1.65851890348164, 55.000333989998097 ], [ -1.65941860044641, 55.002444601564697 ], [ -1.66711644037349, 55.001687726139998 ], [ -1.66805957815838, 55.004857022373898 ], [ -1.66880974213537, 55.0054112457522 ], [ -1.66036690844856, 55.012307795516598 ], [ -1.65964171458793, 55.0118950440148 ], [ -1.6545782467513, 55.011187076585998 ], [ -1.65178749734895, 55.010967026585099 ], [ -1.65177344461065, 55.0113220142904 ], [ -1.64845176110463, 55.0113681724958 ], [ -1.64492677468809, 55.01071544853 ], [ -1.64565307174965, 55.009224953593701 ], [ -1.64242464455215, 55.009168807847999 ], [ -1.64254930836854, 55.008866339297398 ], [ -1.64296636729761, 55.008923259562401 ], [ -1.64414605743931, 55.0063692639539 ], [ -1.64122899846935, 55.006665343007498 ], [ -1.63869348392814, 55.002272586569603 ] ] ] } },
{ "type": "Feature", "properties": { "FID": 3030, "WD23CD": "E05011450", "WD23NM": "Kingston Park South & Newbiggin Hall", "WD23NMW": " ", "BNG_E": 420388, "BNG_N": 567937, "LONG": -1.68279, "LAT": 55.00559, "GlobalID": "540c2535-31c8-4bc9-81e5-7ef40e1a674a", "Electoral wards and divisions Code": "E05011450", "Electoral wards and divisions": "Kingston Park South & Newbiggin Hall", "total_population": 10750, "gp_count": 1.0, "gp_per_10k": 0.93 }, "geometry": { "type": "Polygon", "coordinates": [ [ [ -1.65846022372694, 55.014005288232099 ], [ -1.66036690844856, 55.012307795516598 ], [ -1.66880974213537, 55.0054112457522 ], [ -1.67909678508663, 54.996658881794502 ], [ -1.6816418325775, 54.997813949280697 ], [ -1.68372453020147, 54.998347799651498 ], [ -1.68365060320768, 54.998803167663901 ], [ -1.68774844269564, 54.999508449894002 ], [ -1.68823440878774, 54.999934708839803 ], [ -1.69130160035043, 55.000328902250203 ], [ -1.69401409341121, 55.001306232436598 ], [ -1.69423815437117, 55.001045375067001 ], [ -1.69544767648229, 55.001503058826799 ], [ -1.69519737661448, 55.001740586003201 ], [ -1.69819620009223, 55.002925156516 ], [ -1.69647528087723, 55.007032082485402 ], [ -1.69955835182059, 55.0078852440449 ], [ -1.70012211807627, 55.008399767199002 ], [ -1.69993605343782, 55.0090274335993 ], [ -1.70064539681408, 55.010562205781 ], [ -1.70028684130808, 55.011257723067096 ], [ -1.69844513609319, 55.011434738577996 ], [ -1.69352880672255, 55.010836580635697 ], [ -1.68907705462794, 55.010863940080903 ], [ -1.68917340795155, 55.009925142518597 ], [ -1.68860072383141, 55.009778957331399 ], [ -1.68075058119502, 55.0098854159287 ], [ -1.67864625591614, 55.012384310219197 ], [ -1.67486930559804, 55.013787766745402 ], [ -1.6646286669709, 55.014459124645803 ], [ -1.65846022372694, 55.014005288232099 ] ] ] } },
{ "type": "Feature", "properties": { "FID": 3031, "WD23CD": "E05011451", "WD23NM": "Lemington", "WD23NMW": " ", "BNG_E": 418323, "BNG_N": 565268, "LONG": -1.71524, "LAT": 54.98168, "GlobalID": "c5d193c8-99ec-4850-9918-da3f67c40c67", "Electoral wards and divisions Code": "E05011451", "Electoral wards and divisions": "Lemington", "total_population": 10207, "gp_count": 0.0, "gp_per_10k": 0.0 }, "geometry": { "type": "Polygon", "coordinates": [ [ [ -1.71211972214139, 54.988373541057499 ], [ -1.69938976398818, 54.9862219715028 ], [ -1.69364852110281, 54.984956738947503 ], [ -1.69795455223248, 54.979157935075698 ], [ -1.69814983072495, 54.977473431861902 ], [ -1.69756805540511, 54.973744539565502 ], [ -1.69779170591657, 54.971079393139199 ], [ -1.70679671659326, 54.973901937950203 ], [ -1.70837081275708, 54.973982092022702 ], [ -1.70980925534042, 54.974482520282898 ], [ -1.71200227391402, 54.974312470592103 ], [ -1.71259974819756, 54.973993077141898 ], [ -1.71022308734543, 54.9742875731175 ], [ -1.70262493683722, 54.972483587540701 ], [ -1.70318258860918, 54.971625027986498 ], [ -1.70257599572644, 54.971264102848103 ], [ -1.70591746044194, 54.970812995986101 ], [ -1.70764358719723, 54.969952659386003 ], [ -1.70934282349354, 54.968246683914401 ], [ -1.71100757101043, 54.9676261090667 ], [ -1.71488476592323, 54.967582275739503 ], [ -1.72023664093482, 54.968202210134898 ], [ -1.72325559747368, 54.969166166207799 ], [ -1.72543981555053, 54.970496583302797 ], [ -1.72582241002225, 54.971212731145997 ], [ -1.72493134086939, 54.973622665364601 ], [ -1.72611012196467, 54.975349750389398 ], [ -1.73884032655479, 54.979551011317902 ], [ -1.73881081097226, 54.980011896702301 ], [ -1.73911098127746, 54.979730365560897 ], [ -1.73922985446133, 54.9797687864259 ], [ -1.73870271086004, 54.980532893549501 ], [ -1.73227066808113, 54.9799842076456 ], [ -1.73397042863646, 54.980717585873002 ], [ -1.73370061403913, 54.981116946760402 ], [ -1.73582497262797, 54.984799546163103 ], [ -1.73687223390426, 54.985698640451702 ], [ -1.73718721471432, 54.987010377194999 ], [ -1.72623094924856, 54.987725857463701 ], [ -1.72573594234128, 54.988139874237902 ], [ -1.72639700209696, 54.991591136143697 ], [ -1.73226250471553, 54.992762497505403 ], [ -1.73221781145857, 54.995029561385202 ], [ -1.73150079396316, 54.995897854557299 ], [ -1.72560259027611, 54.992575109611003 ], [ -1.72235708689171, 54.991129136534198 ], [ -1.71762795169392, 54.989551081203899 ], [ -1.71211972214139, 54.988373541057499 ] ] ] } },
{ "type": "Feature", "properties": { "FID": 3032, "WD23CD": "E05011452", "WD23NM": "Manor Park", "WD23NMW": " ", "BNG_E": 427573, "BNG_N": 567155, "LONG": -1.57053, "LAT": 54.99822, "GlobalID": "cfc473eb-0ee5-4a1e-92bb-003750a65d46", "Electoral wards and divisions Code": "E05011452", "Electoral wards and divisions": "Manor Park (Newcastle upon Tyne)", "total_population": 9442, "gp_count": 2.0, "gp_per_10k": 2.12 }, "geometry": { "type": "Polygon", "coordinates": [ [ [ -1.55850401184555, 55.005543643156003 ], [ -1.55893191385046, 55.000014086836103 ], [ -1.56059017548544, 54.9958791252674 ], [ -1.56802228816858, 54.994302527047303 ], [ -1.57879707629623, 54.9927200101205 ], [ -1.58633969816458, 54.990299752790797 ], [ -1.58815090399924, 54.989708295919598 ], [ -1.59121627394373, 54.991192402783298 ], [ -1.59173326592845, 54.991844737452098 ], [ -1.59226036959943, 54.991801585559898 ], [ -1.59462351403733, 54.9971033363109 ], [ -1.59335816749806, 54.997332784957699 ], [ -1.59369541530144, 54.9979899046157 ], [ -1.59325478387038, 54.997821245560303 ], [ -1.59152739449728, 54.998289086442902 ], [ -1.59184039043353, 54.999341504772097 ], [ -1.58935787223739, 54.999810374837502 ], [ -1.58915381309863, 54.998976623505598 ], [ -1.58867082383304, 54.998968704219998 ], [ -1.58865568602033, 54.999379300340898 ], [ -1.58621000807866, 54.999607376445901 ], [ -1.58621836696864, 54.998791410427302 ], [ -1.58163233267839, 54.998155692297601 ], [ -1.58017105134339, 55.001435225214301 ], [ -1.58075727366877, 55.001582780385 ], [ -1.5791522005114, 55.003338615083301 ], [ -1.58050727025844, 55.003665892248101 ], [ -1.57981446161605, 55.004143332249299 ], [ -1.57885071251822, 55.003903734303996 ], [ -1.57855332584389, 55.004384329554597 ], [ -1.5782099413335, 55.004333731113299 ], [ -1.57794650866184, 55.005447172906997 ], [ -1.57713645401983, 55.005324793506098 ], [ -1.57444032939757, 55.005682049441297 ], [ -1.57470135831812, 55.006585205162402 ], [ -1.57261804512193, 55.006802613543996 ], [ -1.57198104286538, 55.003922943532899 ], [ -1.56748554431769, 55.004716711210101 ], [ -1.56160622797733, 55.006227012169497 ], [ -1.55850401184555, 55.005543643156003 ] ] ] } },
{ "type": "Feature", "properties": { "FID": 3033, "WD23CD": "E05011453", "WD23NM": "Monument", "WD23NMW": " ", "BNG_E": 424559, "BNG_N": 564358, "LONG": -1.61788, "LAT": 54.97324, "GlobalID": "70673391-364c-45e5-b4a0-56bec579e691", "Electoral wards and divisions Code": "E05011453", "Electoral wards and divisions": "Monument", "total_population": 13620, "gp_count": 3.0, "gp_per_10k": 2.2 }, "geometry": { "type": "Polygon", "coordinates": [ [ [ -1.61262424336276, 54.982918669481698 ], [ -1.60990361490499, 54.982289925733497 ], [ -1.60655766832776, 54.980897013327201 ], [ -1.60483278093343, 54.979112112871299 ], [ -1.60300401707343, 54.979190700822301 ], [ -1.60356126296247, 54.977969474024 ], [ -1.60316681804057, 54.977877452934997 ], [ -1.60340309468931, 54.976083636008603 ], [ -1.60300612598433, 54.975304083387897 ], [ -1.60367577700562, 54.974569427890302 ], [ -1.60357010062654, 54.971637830031703 ], [ -1.6026751101706, 54.970820733455596 ], [ -1.60016657967634, 54.970179904158002 ], [ -1.60016561379345, 54.970176949935997 ], [ -1.60817893925751, 54.968015994956303 ], [ -1.6155974546522, 54.965140715945999 ], [ -1.61544091508813, 54.964850866133197 ], [ -1.62028758543113, 54.962494778211202 ], [ -1.62168373557613, 54.964169495973202 ], [ -1.62425652778922, 54.965623245398803 ], [ -1.62609911930785, 54.964991797242298 ], [ -1.63454334803248, 54.963348691677901 ], [ -1.63458772111045, 54.964840537055402 ], [ -1.63569766082516, 54.966629330818897 ], [ -1.629371067159, 54.9684327011676 ], [ -1.63213039175349, 54.970591481934498 ], [ -1.62947075476684, 54.971726512632202 ], [ -1.62912657146924, 54.971956347120603 ], [ -1.62671443692689, 54.971969646855797 ], [ -1.62557641975236, 54.971544732770703 ], [ -1.62267513803412, 54.971266188079497 ], [ -1.62229260218051, 54.972417965823702 ], [ -1.6212025085158, 54.973557662481198 ], [ -1.62330983386926, 54.974923780332702 ], [ -1.62654679220932, 54.9757650102122 ], [ -1.62592933624187, 54.979035003204501 ], [ -1.62400716546125, 54.980764386829897 ], [ -1.6235617666259, 54.9819653064351 ], [ -1.6253776543309, 54.982789595981401 ], [ -1.62515531274916, 54.983177998025901 ], [ -1.62444485100498, 54.982947531798899 ], [ -1.62380170462037, 54.984227078229097 ], [ -1.61845224199322, 54.982959534728799 ], [ -1.61262424336276, 54.982918669481698 ] ] ] } },
{ "type": "Feature", "properties": { "FID": 3034, "WD23CD": "E05011454", "WD23NM": "North Jesmond", "WD23NMW": " ", "BNG_E": 425376, "BNG_N": 566605, "LONG": -1.60492, "LAT": 54.99339, "GlobalID": "4302fea3-ff7a-43b7-a2a7-61e1959ce010", "Electoral wards and divisions Code": "E05011454", "Electoral wards and divisions": "North Jesmond", "total_population": 10578, "gp_count": 1.0, "gp_per_10k": 0.95 }, "geometry": { "type": "Polygon", "coordinates": [ [ [ -1.58907115503931, 54.9889637806235 ], [ -1.5921799794419, 54.9879848548292 ], [ -1.59356072451717, 54.987911312406403 ], [ -1.59479895755068, 54.988017853433703 ], [ -1.5954959250965, 54.988482022640703 ], [ -1.59748862762326, 54.988782483265801 ], [ -1.59767032130271, 54.989067058683602 ], [ -1.59829804489837, 54.989112253454302 ], [ -1.59836951334776, 54.988843875296702 ], [ -1.600050253715, 54.988926667329203 ], [ -1.60001613538787, 54.989224006280097 ], [ -1.60053007766206, 54.989243660453198 ], [ -1.60068564698153, 54.988834333345203 ], [ -1.60449132580277, 54.988970821947397 ], [ -1.60499202005352, 54.989397468488399 ], [ -1.60478886616028, 54.989867736228703 ], [ -1.60549424416196, 54.989985914481402 ], [ -1.60533938717619, 54.990313408005299 ], [ -1.60712154959415, 54.990588775834702 ], [ -1.60776639091869, 54.990492932637402 ], [ -1.60822971588428, 54.989125753310603 ], [ -1.61198842429197, 54.989436142579102 ], [ -1.61227067475327, 54.990157806448799 ], [ -1.61467163472351, 54.989947934214399 ], [ -1.61638293497059, 54.9953909271307 ], [ -1.6114993432677, 54.997881725640902 ], [ -1.61045126881735, 54.998295402041997 ], [ -1.61009048837001, 54.998098312298403 ], [ -1.60939076055917, 54.998686480257199 ], [ -1.60929573553679, 54.998490240448703 ], [ -1.60714817571623, 54.998457277020201 ], [ -1.60708578085356, 54.998763511819597 ], [ -1.60595648937636, 54.998841614443002 ], [ -1.60126895732316, 54.998467812091903 ], [ -1.59771537705937, 54.9975691570123 ], [ -1.59469277010218, 54.995030385526697 ], [ -1.59323972622701, 54.991866849043703 ], [ -1.5938766484154, 54.991152792795397 ], [ -1.59242490913812, 54.989434209236997 ], [ -1.59158587595172, 54.989093521065101 ], [ -1.58964922594327, 54.989279351084697 ], [ -1.58907115503931, 54.9889637806235 ] ] ] } },
{ "type": "Feature", "properties": { "FID": 3035, "WD23CD": "E05011455", "WD23NM": "Ouseburn", "WD23NMW": " ", "BNG_E": 425891, "BNG_N": 564792, "LONG": -1.59704, "LAT": 54.97707, "GlobalID": "1e7b7bff-f198-4cfe-84f6-ebb25cc968cb", "Electoral wards and divisions Code": "E05011455", "Electoral wards and divisions": "Ouseburn (Newcastle upon Tyne)", "total_population": 12644, "gp_count": 4.0, "gp_per_10k": 3.16 }, "geometry": { "type": "Polygon", "coordinates": [ [ [ -1.58054331348873, 54.980309755214698 ], [ -1.59295065902246, 54.976456217649996 ], [ -1.59180677344855, 54.975926671783398 ], [ -1.59281789893576, 54.9762976615173 ], [ -1.59139718456031, 54.975737051931198 ], [ -1.59103439800138, 54.975569097337498 ], [ -1.59097113675168, 54.975068435252098 ], [ -1.59182666164821, 54.974663269560502 ], [ -1.5916581801649, 54.973719159854298 ], [ -1.59026225000058, 54.973178963033398 ], [ -1.5896906035285, 54.972254154851598 ], [ -1.58874485623667, 54.972010116848999 ], [ -1.58843441681729, 54.970583822258902 ], [ -1.59178118614382, 54.971128885548403 ], [ -1.59436762509937, 54.971159982183103 ], [ -1.59682066489859, 54.970955212637797 ], [ -1.60016561379345, 54.970176949935997 ], [ -1.60016657967634, 54.970179904158002 ], [ -1.6026751101706, 54.970820733455596 ], [ -1.60357010062654, 54.971637830031703 ], [ -1.60367577700562, 54.974569427890302 ], [ -1.60300612598433, 54.975304083387897 ], [ -1.60340309468931, 54.976083636008603 ], [ -1.60316681804057, 54.977877452934997 ], [ -1.60356126296247, 54.977969474024 ], [ -1.60300401707343, 54.979190700822301 ], [ -1.60273466830605, 54.980214235079899 ], [ -1.60224162714581, 54.980295274880298 ], [ -1.60075908672663, 54.979798027674398 ], [ -1.60063779072768, 54.980053756155897 ], [ -1.59905683192433, 54.978764343222601 ], [ -1.59388383593786, 54.979369062966299 ], [ -1.59448438780788, 54.979783594155997 ], [ -1.59334175764523, 54.980137426715402 ], [ -1.59397956710223, 54.980729962524897 ], [ -1.5935162534807, 54.980657446774401 ], [ -1.59158638177616, 54.9817580529267 ], [ -1.5901477100084, 54.982343629643402 ], [ -1.58894799700496, 54.981227945761802 ], [ -1.58643088191678, 54.981986903749799 ], [ -1.58634652037314, 54.981681980504199 ], [ -1.58426982219059, 54.9818375190791 ], [ -1.58422893477219, 54.983685862764503 ], [ -1.58186522382127, 54.983938400513601 ], [ -1.58158752085534, 54.982086270310802 ], [ -1.58054331348873, 54.980309755214698 ] ] ] } },
{ "type": "Feature", "properties": { "FID": 3036, "WD23CD": "E05011456", "WD23NM": "Parklands", "WD23NMW": " ", "BNG_E": 424667, "BNG_N": 570186, "LONG": -1.6157, "LAT": 55.0256, "GlobalID": "79920086-5faf-45ca-b2a3-73a17e4ffbc3", "Electoral wards and divisions Code": "E05011456", "Electoral wards and divisions": "Parklands", "total_population": 11763, "gp_count": 1.0, "gp_per_10k": 0.85 }, "geometry": { "type": "Polygon", "coordinates": [ [ [ -1.59756346411178, 55.039566810312898 ], [ -1.59396212338999, 55.039350009018101 ], [ -1.5937362988615, 55.038934132426398 ], [ -1.59263768532565, 55.038940364952701 ], [ -1.59210381259014, 55.034662162147001 ], [ -1.5907266602917, 55.030860816534499 ], [ -1.58733477992671, 55.026005886140197 ], [ -1.58777710073223, 55.025433138513897 ], [ -1.59180501386849, 55.024654975559898 ], [ -1.59385338403611, 55.023650745483202 ], [ -1.59416308304613, 55.023798298522998 ], [ -1.59667055973875, 55.020666745182403 ], [ -1.59906322952906, 55.017566217886703 ], [ -1.6010261438678, 55.012365106942802 ], [ -1.60090211453783, 55.010851506348999 ], [ -1.60026644234707, 55.009838412251298 ], [ -1.60303042971977, 55.010043373927303 ], [ -1.61389120908511, 55.0113722577535 ], [ -1.6207748040513, 55.011842327614502 ], [ -1.62085155493563, 55.012314290367001 ], [ -1.62218515810573, 55.012019191809401 ], [ -1.62494808256045, 55.012365596794702 ], [ -1.63531694534845, 55.014268866039899 ], [ -1.63527430758426, 55.0158619589279 ], [ -1.63867411611756, 55.016387027335803 ], [ -1.64147468859099, 55.017643476129301 ], [ -1.64053964663588, 55.017792541090699 ], [ -1.64028604747486, 55.0197210956389 ], [ -1.64122166200793, 55.022828567885597 ], [ -1.64530602442569, 55.0234803586415 ], [ -1.64737425950494, 55.023417200689401 ], [ -1.64165350400688, 55.026816118509899 ], [ -1.63227245102753, 55.031259651543103 ], [ -1.62988131412633, 55.033025436227398 ], [ -1.62870148293557, 55.034731887002103 ], [ -1.62832020150458, 55.036538768009201 ], [ -1.62970799591479, 55.041465646991597 ], [ -1.62620004239274, 55.041425295756497 ], [ -1.62606880897686, 55.040222529730698 ], [ -1.62384020030396, 55.039930806622799 ], [ -1.62367212575557, 55.040340028594898 ], [ -1.62243133391903, 55.040165505796097 ], [ -1.62293320098882, 55.039040159207502 ], [ -1.6223957523613, 55.038955847419203 ], [ -1.61946155938835, 55.040472585281201 ], [ -1.61658861226525, 55.041293866145899 ], [ -1.61034667440912, 55.0404735447188 ], [ -1.59756346411178, 55.039566810312898 ] ] ] } },
{ "type": "Feature", "properties": { "FID": 3037, "WD23CD": "E05011457", "WD23NM": "South Jesmond", "WD23NMW": " ", "BNG_E": 425634, "BNG_N": 565636, "LONG": -1.60098, "LAT": 54.98467, "GlobalID": "51be3638-aefe-44d5-a96a-1066d9eff9ce", "Electoral wards and divisions Code": "E05011457", "Electoral wards and divisions": "South Jesmond", "total_population": 9786, "gp_count": 2.0, "gp_per_10k": 2.04 }, "geometry": { "type": "Polygon", "coordinates": [ [ [ -1.58907115503931, 54.9889637806235 ], [ -1.5890491859764, 54.988969995086698 ], [ -1.58809929206888, 54.988168763030103 ], [ -1.5882223451534, 54.9872814093359 ], [ -1.58721724259742, 54.987010202294002 ], [ -1.58703557609556, 54.985820682829001 ], [ -1.58895526177729, 54.984510703678502 ], [ -1.58841419220262, 54.983629101357401 ], [ -1.58966657926736, 54.983557863133399 ], [ -1.59031349429127, 54.982473552597298 ], [ -1.59158638177616, 54.9817580529267 ], [ -1.5935162534807, 54.980657446774401 ], [ -1.59397956710223, 54.980729962524897 ], [ -1.59334175764523, 54.980137426715402 ], [ -1.59448438780788, 54.979783594155997 ], [ -1.59388383593786, 54.979369062966299 ], [ -1.59905683192433, 54.978764343222601 ], [ -1.60063779072768, 54.980053756155897 ], [ -1.60075908672663, 54.979798027674398 ], [ -1.60224162714581, 54.980295274880298 ], [ -1.60273466830605, 54.980214235079899 ], [ -1.60300401707343, 54.979190700822301 ], [ -1.60483278093343, 54.979112112871299 ], [ -1.60655766832776, 54.980897013327201 ], [ -1.60990361490499, 54.982289925733497 ], [ -1.61262424336276, 54.982918669481698 ], [ -1.61467163472351, 54.989947934214399 ], [ -1.61227067475327, 54.990157806448799 ], [ -1.61198842429197, 54.989436142579102 ], [ -1.60822971588428, 54.989125753310603 ], [ -1.60776639091869, 54.990492932637402 ], [ -1.60712154959415, 54.990588775834702 ], [ -1.60533938717619, 54.990313408005299 ], [ -1.60549424416196, 54.989985914481402 ], [ -1.60478886616028, 54.989867736228703 ], [ -1.60499202005352, 54.989397468488399 ], [ -1.60449132580277, 54.988970821947397 ], [ -1.60068564698153, 54.988834333345203 ], [ -1.60053007766206, 54.989243660453198 ], [ -1.60001613538787, 54.989224006280097 ], [ -1.600050253715, 54.988926667329203 ], [ -1.59836951334776, 54.988843875296702 ], [ -1.59829804489837, 54.989112253454302 ], [ -1.59767032130271, 54.989067058683602 ], [ -1.59748862762326, 54.988782483265801 ], [ -1.5954959250965, 54.988482022640703 ], [ -1.59479895755068, 54.988017853433703 ], [ -1.59356072451717, 54.987911312406403 ], [ -1.5921799794419, 54.9879848548292 ], [ -1.58907115503931, 54.9889637806235 ] ] ] } },
{ "type": "Feature", "properties": { "FID": 3038, "WD23CD": "E05011458", "WD23NM": "Walker", "WD23NMW": " ", "BNG_E": 428852, "BNG_N": 563892, "LONG": -1.55087, "LAT": 54.96882, "GlobalID": "e9d06ce7-b115-40fe-8a93-c0fe192bea86", "Electoral wards and divisions Code": "E05011458", "Electoral wards and divisions": "Walker", "total_population": 11825, "gp_count": 1.0, "gp_per_10k": 0.85 }, "geometry": { "type": "Polygon", "coordinates": [ [ [ -1.53503438896503, 54.977504101279699 ], [ -1.53692767576598, 54.965392988532699 ], [ -1.53751317292809, 54.964457942264602 ], [ -1.53783345391482, 54.964591216513298 ], [ -1.54075191010165, 54.963002697651397 ], [ -1.54341694050842, 54.9621320342616 ], [ -1.54408112123478, 54.962360099879199 ], [ -1.54568453603216, 54.9619976630051 ], [ -1.55162524960118, 54.960058785956001 ], [ -1.5540308474959, 54.960005626274302 ], [ -1.56082132680571, 54.963122451116298 ], [ -1.56534349891777, 54.964536197098802 ], [ -1.56498056711949, 54.966145970555502 ], [ -1.56560548340949, 54.966282951755097 ], [ -1.5653112827127, 54.968210332187503 ], [ -1.56590393491854, 54.970030375068298 ], [ -1.56522598795583, 54.970326307839102 ], [ -1.56588722259231, 54.973470244854497 ], [ -1.56677673476942, 54.973412317414002 ], [ -1.56685638549056, 54.973707353548299 ], [ -1.559299977326, 54.974126870158997 ], [ -1.53954816767883, 54.97744355036 ], [ -1.53652612848479, 54.977607288757603 ], [ -1.53503438896503, 54.977504101279699 ] ] ] } },
{ "type": "Feature", "properties": { "FID": 3039, "WD23CD": "E05011459", "WD23NM": "Walkergate", "WD23NMW": " ", "BNG_E": 428531, "BNG_N": 565550, "LONG": -1.55572, "LAT": 54.98374, "GlobalID": "1f1b33ce-3eca-4377-ae3d-c5ea96458d6a", "Electoral wards and divisions Code": "E05011459", "Electoral wards and divisions": "Walkergate", "total_population": 12407, "gp_count": 3.0, "gp_per_10k": 2.42 }, "geometry": { "type": "Polygon", "coordinates": [ [ [ -1.54791697311987, 54.992621144748597 ], [ -1.54697556521428, 54.992105403411003 ], [ -1.54578164273452, 54.989025045963999 ], [ -1.54044255090579, 54.989891111631103 ], [ -1.53838547625742, 54.9870409113406 ], [ -1.53902667009764, 54.986732410725203 ], [ -1.5388325657502, 54.985663248289001 ], [ -1.53978829118856, 54.984477957631697 ], [ -1.53998584190862, 54.983318640705299 ], [ -1.53789764324347, 54.982957510465901 ], [ -1.5336996396547, 54.985749744915999 ], [ -1.53089038404598, 54.984241784809001 ], [ -1.53084429541888, 54.984015278056198 ], [ -1.53252980412546, 54.982855307628199 ], [ -1.53230435203607, 54.982620778517898 ], [ -1.53493506806598, 54.978614952074302 ], [ -1.53503361483545, 54.977509051552701 ], [ -1.53503438896503, 54.977504101279699 ], [ -1.53652612848479, 54.977607288757603 ], [ -1.53954816767883, 54.97744355036 ], [ -1.559299977326, 54.974126870158997 ], [ -1.56248292897957, 54.980852810606599 ], [ -1.5721561375071, 54.978513898754997 ], [ -1.57403233548842, 54.977801590244603 ], [ -1.57385660310007, 54.978464151838402 ], [ -1.57515449128561, 54.982082901266502 ], [ -1.57210085689702, 54.983448076918897 ], [ -1.56793491091287, 54.986235310272903 ], [ -1.56257082397793, 54.992240561276098 ], [ -1.56125106637959, 54.991435105456603 ], [ -1.55863392661905, 54.992797028054902 ], [ -1.55635812622428, 54.993371007415803 ], [ -1.55228966691015, 54.989702393118399 ], [ -1.55020638584565, 54.990539375456201 ], [ -1.54995093143819, 54.990323723430102 ], [ -1.5493382177869, 54.990472387532002 ], [ -1.54791697311987, 54.992621144748597 ] ] ] } },
{ "type": "Feature", "properties": { "FID": 3040, "WD23CD": "E05011460", "WD23NM": "West Fenham", "WD23NMW": " ", "BNG_E": 420709, "BNG_N": 565731, "LONG": -1.67793, "LAT": 54.98575, "GlobalID": "d98efafb-c308-4342-ba3f-c7142a5f3176", "Electoral wards and divisions Code": "E05011460", "Electoral wards and divisions": "West Fenham", "total_population": 10876, "gp_count": 2.0, "gp_per_10k": 1.84 }, "geometry": { "type": "Polygon", "coordinates": [ [ [ -1.65828310708153, 54.989725901203997 ], [ -1.66137463939728, 54.987431284596397 ], [ -1.66364555914869, 54.985143400442801 ], [ -1.66184772074876, 54.984660393055599 ], [ -1.66266067150509, 54.983870910516103 ], [ -1.65986439536858, 54.981894246600298 ], [ -1.66042682243849, 54.981529189180002 ], [ -1.66222342929784, 54.981567430044002 ], [ -1.66282435298302, 54.981264457232299 ], [ -1.66270134268356, 54.979332067647697 ], [ -1.66176270374179, 54.978901655372297 ], [ -1.65759675496281, 54.979159604733802 ], [ -1.65722943427563, 54.9762092853355 ], [ -1.65867588271538, 54.976424471951603 ], [ -1.66485234491292, 54.977494903282 ], [ -1.69364852110281, 54.984956738947503 ], [ -1.68080851491337, 54.995256995725001 ], [ -1.67870294490994, 54.994283640468602 ], [ -1.67464925317824, 54.9908796303408 ], [ -1.67327619970681, 54.990210072329504 ], [ -1.6630440104649, 54.989283514958899 ], [ -1.65828310708153, 54.989725901203997 ] ] ] } },
{ "type": "Feature", "properties": { "FID": 3041, "WD23CD": "E05011461", "WD23NM": "Wingrove", "WD23NMW": " ", "BNG_E": 423255, "BNG_N": 565650, "LONG": -1.63815, "LAT": 54.98491, "GlobalID": "e0f512a0-992f-4225-881f-5e4670dec237", "Electoral wards and divisions Code": "E05011461", "Electoral wards and divisions": "Wingrove", "total_population": 11670, "gp_count": 0.0, "gp_per_10k": 0.0 }, "geometry": { "type": "Polygon", "coordinates": [ [ [ -1.61638293497059, 54.9953909271307 ], [ -1.61467163472351, 54.989947934214399 ], [ -1.61262424336276, 54.982918669481698 ], [ -1.61845224199322, 54.982959534728799 ], [ -1.62380170462037, 54.984227078229097 ], [ -1.62444485100498, 54.982947531798899 ], [ -1.62515531274916, 54.983177998025901 ], [ -1.62674403333999, 54.983551302885303 ], [ -1.62739495804895, 54.9829565954374 ], [ -1.62855351285561, 54.983555039438997 ], [ -1.62987544318694, 54.981155279130398 ], [ -1.63180902469688, 54.981241994197703 ], [ -1.63387527394823, 54.979957793567898 ], [ -1.63921268653243, 54.983480181556203 ], [ -1.64117011108799, 54.982643914389001 ], [ -1.64400107935616, 54.980359829827698 ], [ -1.64260742315556, 54.9799954090482 ], [ -1.64386563324713, 54.974045635049798 ], [ -1.65722943427563, 54.9762092853355 ], [ -1.65759675496281, 54.979159604733802 ], [ -1.66176270374179, 54.978901655372297 ], [ -1.66270134268356, 54.979332067647697 ], [ -1.66282435298302, 54.981264457232299 ], [ -1.66222342929784, 54.981567430044002 ], [ -1.66042682243849, 54.981529189180002 ], [ -1.65986439536858, 54.981894246600298 ], [ -1.66266067150509, 54.983870910516103 ], [ -1.66184772074876, 54.984660393055599 ], [ -1.66364555914869, 54.985143400442801 ], [ -1.66137463939728, 54.987431284596397 ], [ -1.65828310708153, 54.989725901203997 ], [ -1.65677319922745, 54.989936365108903 ], [ -1.65441149595577, 54.989406739974399 ], [ -1.64540438716737, 54.989835510638102 ], [ -1.64195043135982, 54.989493813489503 ], [ -1.63857995606725, 54.988726346045098 ], [ -1.63027757651912, 54.994469693130704 ], [ -1.62864626602463, 54.995105447349601 ], [ -1.61930086757068, 54.995754136461798 ], [ -1.61638293497059, 54.9953909271307 ] ] ] } }
]
}
